{
  "type": "FeatureCollection",
  "features": [
    {
      "type": "Feature",
      "properties": {
        "norad_id": 30144,
        "name": "FENGYUN 1C DEB",
        "group": "fengyun-1c-debris",
        "lat": 71.13487512621725,
        "lon": -44.25655945266554,
        "alt_km": 997.2426301517626,
        "timestamp": "2025-12-16T17:51:11.205492+00:00",
        "meta_object_name": "FENGYUN 1C DEB",
        "meta_object_id": "1999-025SZ",
        "meta_epoch": "2025-12-15T22:47:04.892352",
        "meta_mean_motion": 13.91823401,
        "meta_eccentricity": 0.01256858,
        "meta_inclination": 99.0099,
        "meta_ra_of_asc_node": 342.6384,
        "meta_arg_of_pericenter": 282.0361,
        "meta_mean_anomaly": 131.8877,
        "meta_ephemeris_type": 0,
        "meta_classification_type": "U",
        "meta_norad_cat_id": 30144,
        "meta_element_set_no": 999,
        "meta_rev_at_epoch": 95885,
        "meta_bstar": 0.00050960006,
        "meta_mean_motion_dot": 6.48e-06,
        "meta_mean_motion_ddot": 0,
        "tle_line1": "1 30144U 99025SZ  25349.94936218  .00000648  00000+0  50960-3 0  9992",
        "tle_line2": "2 30144  99.0099 342.6384 0125685 282.0361 131.8877 13.91823401958851"
      },
      "geometry": {
        "type": "Point",
        "coordinates": [
          -44.25655945266554,
          71.13487512621725
        ]
      }
    },
    {
      "type": "Feature",
      "properties": {
        "norad_id": 30145,
        "name": "FENGYUN 1C DEB",
        "group": "fengyun-1c-debris",
        "lat": 70.42078690585049,
        "lon": -52.19467520228335,
        "alt_km": 781.6226155484019,
        "timestamp": "2025-12-16T17:51:11.205502+00:00",
        "meta_object_name": "FENGYUN 1C DEB",
        "meta_object_id": "1999-025TA",
        "meta_epoch": "2025-12-15T14:15:09.064224",
        "meta_mean_motion": 14.14058336,
        "meta_eccentricity": 0.0091284,
        "meta_inclination": 99.2697,
        "meta_ra_of_asc_node": 99.2792,
        "meta_arg_of_pericenter": 140.9692,
        "meta_mean_anomaly": 235.7234,
        "meta_ephemeris_type": 0,
        "meta_classification_type": "U",
        "meta_norad_cat_id": 30145,
        "meta_element_set_no": 999,
        "meta_rev_at_epoch": 96236,
        "meta_bstar": 0.0020594198,
        "meta_mean_motion_dot": 4.031e-05,
        "meta_mean_motion_ddot": 0,
        "tle_line1": "1 30145U 99025TA  25349.59385491  .00004031  00000+0  20594-2 0  9994",
        "tle_line2": "2 30145  99.2697  99.2792 0091284 140.9692 235.7234 14.14058336962367"
      },
      "geometry": {
        "type": "Point",
        "coordinates": [
          -52.19467520228335,
          70.42078690585049
        ]
      }
    },
    {
      "type": "Feature",
      "properties": {
        "norad_id": 30146,
        "name": "FENGYUN 1C DEB",
        "group": "fengyun-1c-debris",
        "lat": 37.13442826291421,
        "lon": 143.67073752115462,
        "alt_km": 899.8958789941171,
        "timestamp": "2025-12-16T17:51:11.205512+00:00",
        "meta_object_name": "FENGYUN 1C DEB",
        "meta_object_id": "1999-025TB",
        "meta_epoch": "2025-12-15T21:39:44.366976",
        "meta_mean_motion": 13.86605229,
        "meta_eccentricity": 0.01787635,
        "meta_inclination": 98.02,
        "meta_ra_of_asc_node": 149.0772,
        "meta_arg_of_pericenter": 114.1215,
        "meta_mean_anomaly": 48.3316,
        "meta_ephemeris_type": 0,
        "meta_classification_type": "U",
        "meta_norad_cat_id": 30146,
        "meta_element_set_no": 999,
        "meta_rev_at_epoch": 95461,
        "meta_bstar": 0.00057993177,
        "meta_mean_motion_dot": 7.31e-06,
        "meta_mean_motion_ddot": 0,
        "tle_line1": "1 30146U 99025TB  25349.90259684  .00000731  00000+0  57993-3 0  9991",
        "tle_line2": "2 30146  98.0200 149.0772 0178763 114.1215  48.3316 13.86605229954614"
      },
      "geometry": {
        "type": "Point",
        "coordinates": [
          143.67073752115462,
          37.13442826291421
        ]
      }
    },
    {
      "type": "Feature",
      "properties": {
        "norad_id": 30148,
        "name": "FENGYUN 1C DEB",
        "group": "fengyun-1c-debris",
        "lat": 80.39448126177098,
        "lon": 43.966360268967435,
        "alt_km": 933.7438232081367,
        "timestamp": "2025-12-16T17:51:11.205522+00:00",
        "meta_object_name": "FENGYUN 1C DEB",
        "meta_object_id": "1999-025TD",
        "meta_epoch": "2025-12-15T08:42:00.635904",
        "meta_mean_motion": 13.88494206,
        "meta_eccentricity": 0.01350041,
        "meta_inclination": 99.545,
        "meta_ra_of_asc_node": 138.7294,
        "meta_arg_of_pericenter": 189.7154,
        "meta_mean_anomaly": 201.6267,
        "meta_ephemeris_type": 0,
        "meta_classification_type": "U",
        "meta_norad_cat_id": 30148,
        "meta_element_set_no": 999,
        "meta_rev_at_epoch": 95553,
        "meta_bstar": 0.00093336648,
        "meta_mean_motion_dot": 1.159e-05,
        "meta_mean_motion_ddot": 0,
        "tle_line1": "1 30148U 99025TD  25349.36250736  .00001159  00000+0  93337-3 0  9999",
        "tle_line2": "2 30148  99.5450 138.7294 0135004 189.7154 201.6267 13.88494206955538"
      },
      "geometry": {
        "type": "Point",
        "coordinates": [
          43.966360268967435,
          80.39448126177098
        ]
      }
    },
    {
      "type": "Feature",
      "properties": {
        "norad_id": 30150,
        "name": "FENGYUN 1C DEB",
        "group": "fengyun-1c-debris",
        "lat": -20.436359350154618,
        "lon": -56.80068372183177,
        "alt_km": 1005.6107524501058,
        "timestamp": "2025-12-16T17:51:11.205532+00:00",
        "meta_object_name": "FENGYUN 1C DEB",
        "meta_object_id": "1999-025TF",
        "meta_epoch": "2025-12-15T22:24:44.322048",
        "meta_mean_motion": 13.86597945,
        "meta_eccentricity": 0.01464378,
        "meta_inclination": 98.9944,
        "meta_ra_of_asc_node": 125.8038,
        "meta_arg_of_pericenter": 327.4653,
        "meta_mean_anomaly": 153.216,
        "meta_ephemeris_type": 0,
        "meta_classification_type": "U",
        "meta_norad_cat_id": 30150,
        "meta_element_set_no": 999,
        "meta_rev_at_epoch": 95502,
        "meta_bstar": 0.00050635072,
        "meta_mean_motion_dot": 5.97e-06,
        "meta_mean_motion_ddot": 0,
        "tle_line1": "1 30150U 99025TF  25349.93384632  .00000597  00000+0  50635-3 0  9997",
        "tle_line2": "2 30150  98.9944 125.8038 0146437 327.4653 153.2160 13.86597945955022"
      },
      "geometry": {
        "type": "Point",
        "coordinates": [
          -56.80068372183177,
          -20.436359350154618
        ]
      }
    },
    {
      "type": "Feature",
      "properties": {
        "norad_id": 30151,
        "name": "FENGYUN 1C DEB",
        "group": "fengyun-1c-debris",
        "lat": -24.58138006669861,
        "lon": 2.769171740421095,
        "alt_km": 905.530782169043,
        "timestamp": "2025-12-16T17:51:11.205542+00:00",
        "meta_object_name": "FENGYUN 1C DEB",
        "meta_object_id": "1999-025TG",
        "meta_epoch": "2025-12-15T23:12:01.818144",
        "meta_mean_motion": 13.84477419,
        "meta_eccentricity": 0.0163179,
        "meta_inclination": 99.0632,
        "meta_ra_of_asc_node": 357.8317,
        "meta_arg_of_pericenter": 270.0734,
        "meta_mean_anomaly": 151.8772,
        "meta_ephemeris_type": 0,
        "meta_classification_type": "U",
        "meta_norad_cat_id": 30151,
        "meta_element_set_no": 999,
        "meta_rev_at_epoch": 95290,
        "meta_bstar": 0.0005638422,
        "meta_mean_motion_dot": 6.57e-06,
        "meta_mean_motion_ddot": 0,
        "tle_line1": "1 30151U 99025TG  25349.96668771  .00000657  00000+0  56384-3 0  9994",
        "tle_line2": "2 30151  99.0632 357.8317 0163179 270.0734 151.8772 13.84477419952909"
      },
      "geometry": {
        "type": "Point",
        "coordinates": [
          2.769171740421095,
          -24.58138006669861
        ]
      }
    },
    {
      "type": "Feature",
      "properties": {
        "norad_id": 30152,
        "name": "FENGYUN 1C DEB",
        "group": "fengyun-1c-debris",
        "lat": -80.80475502390793,
        "lon": -70.4564094083756,
        "alt_km": 1025.2207284325432,
        "timestamp": "2025-12-16T17:51:11.205552+00:00",
        "meta_object_name": "FENGYUN 1C DEB",
        "meta_object_id": "1999-025TH",
        "meta_epoch": "2025-12-15T13:03:19.090080",
        "meta_mean_motion": 13.9670789,
        "meta_eccentricity": 0.01621062,
        "meta_inclination": 99.0808,
        "meta_ra_of_asc_node": 207.2598,
        "meta_arg_of_pericenter": 77.6361,
        "meta_mean_anomaly": 284.2893,
        "meta_ephemeris_type": 0,
        "meta_classification_type": "U",
        "meta_norad_cat_id": 30152,
        "meta_element_set_no": 999,
        "meta_rev_at_epoch": 95417,
        "meta_bstar": 0.0021411954,
        "meta_mean_motion_dot": 3.277e-05,
        "meta_mean_motion_ddot": 0,
        "tle_line1": "1 30152U 99025TH  25349.54397095  .00003277  00000+0  21412-2 0  9991",
        "tle_line2": "2 30152  99.0808 207.2598 0162106  77.6361 284.2893 13.96707890954178"
      },
      "geometry": {
        "type": "Point",
        "coordinates": [
          -70.4564094083756,
          -80.80475502390793
        ]
      }
    }
  ]
}